{
    "links": {
        "self": "http://www.neowsapp.com/rest/v1/neo/3759292?api_key=iIulBulltgU6a56xZRHN4H3l9WmuAYTsLGpBGhQ2"
    },
    "id": "3759292",
    "neo_reference_id": "3759292",
    "name": "(2016 RR19)",
    "designation": "2016 RR19",
    "nasa_jpl_url": "http://ssd.jpl.nasa.gov/sbdb.cgi?sstr=3759292",
    "absolute_magnitude_h": 28.6,
    "estimated_diameter": {
        "kilometers": {
            "estimated_diameter_min": 0.0050647146,
            "estimated_diameter_max": 0.0113250461
        },
        "meters": {
            "estimated_diameter_min": 5.0647145883,
            "estimated_diameter_max": 11.3250461062
        },
        "miles": {
            "estimated_diameter_min": 0.0031470668,
            "estimated_diameter_max": 0.0070370552
        },
        "feet": {
            "estimated_diameter_min": 16.61651821,
            "estimated_diameter_max": 37.155664267
        }
    },
    "is_potentially_hazardous_asteroid": false,
    "close_approach_data": [
        {
            "close_approach_date": "2016-09-04",
            "close_approach_date_full": "2016-Sep-04 00:27",
            "epoch_date_close_approach": 1472948820000,
            "relative_velocity": {
                "kilometers_per_second": "10.6295272277",
                "kilometers_per_hour": "38266.2980198802",
                "miles_per_hour": "23777.1894557417"
            },
            "miss_distance": {
                "astronomical": "0.0042116298",
                "lunar": "1.6383239922",
                "kilometers": "630050.847308526",
                "miles": "391495.4426326188"
            },
            "orbiting_body": "Moon"
        },
        {
            "close_approach_date": "2016-09-04",
            "close_approach_date_full": "2016-Sep-04 09:58",
            "epoch_date_close_approach": 1472983080000,
            "relative_velocity": {
                "kilometers_per_second": "10.6470445605",
                "kilometers_per_hour": "38329.3604177802",
                "miles_per_hour": "23816.3739773701"
            },
            "miss_distance": {
                "astronomical": "0.0047653099",
                "lunar": "1.8537055511",
                "kilometers": "712880.210929913",
                "miles": "442963.2225942794"
            },
            "orbiting_body": "Earth"
        },
        {
            "close_approach_date": "2091-05-26",
            "close_approach_date_full": "2091-May-26 01:11",
            "epoch_date_close_approach": 3830980260000,
            "relative_velocity": {
                "kilometers_per_second": "11.337783735",
                "kilometers_per_hour": "40816.0214460709",
                "miles_per_hour": "25361.4884368656"
            },
            "miss_distance": {
                "astronomical": "0.0545430503",
                "lunar": "21.2172465667",
                "kilometers": "8159524.148182861",
                "miles": "5070093.2023350418"
            },
            "orbiting_body": "Earth"
        }
    ],
    "orbital_data": {
        "orbit_id": "2",
        "orbit_determination_date": "2017-04-06 08:24:03",
        "first_observation_date": "2016-09-06",
        "last_observation_date": "2016-09-10",
        "data_arc_in_days": 4,
        "observations_used": 25,
        "orbit_uncertainty": "7",
        "minimum_orbit_intersection": ".0041864",
        "jupiter_tisserand_invariant": "4.025",
        "epoch_osculation": "2459000.5",
        "eccentricity": ".4759235572944791",
        "semi_major_axis": "1.727356191599032",
        "inclination": "2.555538270173739",
        "ascending_node_longitude": "336.4309797419899",
        "orbital_period": "829.2228832987612",
        "perihelion_distance": ".9052666881785769",
        "perihelion_argument": "318.6188098144705",
        "aphelion_distance": "2.549445695019487",
        "perihelion_time": "2459258.045862745653",
        "mean_anomaly": "248.1886734485711",
        "mean_motion": ".4341414199375096",
        "equinox": "J2000",
        "orbit_class": {
            "orbit_class_type": "APO",
            "orbit_class_description": "Near-Earth asteroid orbits which cross the Earth’s orbit similar to that of 1862 Apollo",
            "orbit_class_range": "a (semi-major axis) > 1.0 AU; q (perihelion) < 1.017 AU"
        }
    },
    "is_sentry_object": false
}